NOAA 2 (ITOS-D)
1 06235U 72082A   25116.97313019 -.00000023  00000-0  14949-3 0  9999
2 06235 102.0233 125.6736 0003711 240.1133 174.6371 12.53199369402817
SOLRAD-7B
1  1291U 65016D   25117.21457894  .00000085  00000-0  10180-3 0  9993
2  1291  70.0809  40.5834 0023169 303.0713  56.8167 13.94906099 59187
OSCAR-7 (AO-7)
1  7530U 74089B   25116.98801307 -.00000034  00000-0  76610-4 0  9996
2  7530 101.9948 120.7865 0012063 203.7146 181.0119 12.53688663308609
UOSAT-2 (UO-11)
1 14781U 84021B   25116.86290461  .00003451  00000-0  37018-3 0  9992
2 14781  97.7508  84.1108 0009286 115.5155 244.7023 14.89230873195135
FLTSATCOM-7 (USA-20)
1 17181U 86096A   25115.98459630 -.00000253  00000-0  00000-0 0  9996
2 17181  13.0412 342.7268 0040517 321.8182  33.0746  0.98929648147836
FLTSATCOM-8 (USA-46)
1 20253U 89077A   25116.60878223 -.00000369  00000-0  00000-0 0  9993
2 20253  12.5398 353.6622 0006265  13.7977 192.0606  1.00262485256388
OSCAR 16 (PACSAT)
1 20439U 90005D   25116.92569362  .00000339  00000-0  13890-3 0  9998
2 20439  98.8917 136.8562 0010883  18.5338  55.1664 14.33751139842289
LUSAT (LO-19)
1 20442U 90005G   25116.91545779  .00000366  00000-0  14817-3 0  9997
2 20442  98.8997 121.8645 0011372 352.3326   7.7682 14.33934243842739
UFO 2 (USA 95)
1 22787U 93056A   25116.88308656  .00000125  00000-0  00000+0 0  9995
2 22787  11.7548   5.7731 0004195 349.9646 205.9203  1.00274634114483
EYESAT-1 (AO-27)
1 22825U 93061C   25116.72057336  .00000250  00000-0  11278-3 0  9995
2 22825  98.7401 178.0501 0007463 237.0146 123.0319 14.30781788647446
ITAMSAT (IO-26) 
1 22826U 93061D   25116.89183639  .00000298  00000-0  12985-3 0  9998
2 22826  98.7347 178.1023 0008216 219.4980 140.5604 14.31193285647769
UFO 3 (USA 104)
1 23132U 94035A   25116.95669596  .00000101  00000-0  00000+0 0  9993
2 23132  12.1831   8.1621 0001818 309.7838 264.3167  1.00204227127527
RADIO ROSTO (RS-15)
1 23439U 94085A   25116.89756345 -.00000066  00000-0 -68480-3 0  9992
2 23439  64.8157 256.4448 0145718  82.9191 278.8278 11.27581519248964
UFO 4 (USA 108)
1 23467U 95003A   25116.49292598 -.00000019  00000-0  00000-0 0  9993
2 23467   9.7097  14.5367 0002313  31.9255 158.1135  1.00275830110772
UFO 7 (USA 127)
1 23967U 96042A   25116.54003212 -.00000228  00000-0  00000-0 0  9993
2 23967  10.7178  19.2207 0005953  92.6588 267.0972  1.00302366105307
JAS-2 (FO-29)
1 24278U 96046B   25117.20513934  .00000025  00000-0  58632-4 0  9996
2 24278  98.5802  16.7989 0350936  94.9562 269.1730 13.53245097417153
UFO 8 (USA 138)
1 25258U 98016A   25115.76920054 -.00000123  00000-0  00000-0 0  9990
2 25258  10.6261  25.1473 0004377 256.0158 284.1763  1.00398599 99676
TECHSAT-1B (GO-32)
1 25397U 98043D   25116.92679843  .00000217  00000-0  11423-3 0  9997
2 25397  98.9681  95.1419 0001315  23.7390 336.3849 14.24301628392070
ISS (ZARYA)
1 25544U 98067A   25117.23144476  .00020047  00000-0  36688-3 0  9994
2 25544  51.6379 199.4277 0002582  74.2182 152.5532 15.49327109507256
UFO 10 (USA 146)
1 25967U 99063A   25117.09678351 -.00000187  00000-0  00000+0 0  9997
2 25967   9.6954  29.2928 0001940 311.8531 246.0579  1.00269357 93167
PCSAT (NO-44)
1 26931U 01043C   25116.77577307  .00000444  00000-0  19744-3 0  9997
2 26931  67.0509 241.0924 0005645 271.8426  88.2029 14.31708838230830
PROBA-1
1 26958U 01049B   25117.21571934  .00004596  00000-0  31618-3 0  9998
2 26958  97.9469 107.2820 0059778  87.5120 273.2947 15.04974414281065
SAUDISAT-1C (SO-50)
1 27607U 02058C   25116.94789450  .00002684  00000-0  35227-3 0  9990
2 27607  64.5551 335.2059 0051127 344.3227  15.6292 14.81489950202769
CUTE-1 (CO-55)
1 27844U 03031E   25116.97460662  .00000725  00000-0  33519-3 0  9995
2 27844  98.6777 125.8089 0008771 320.2432  39.8103 14.23956168132435
CUBESAT XI-IV (CO-57)
1 27848U 03031J   25116.97302607  .00000614  00000-0  29051-3 0  9996
2 27848  98.6803 125.8456 0009028 338.5486  21.5313 14.23296380132168
MOZHAYETS-4 (RS-22)
1 27939U 03042A   25117.18506959  .00002598  00000-0  41969-3 0  9994
2 27939  98.3244 285.6000 0012302 143.1950 331.9681 14.72220510154447
UFO 11 (USA 174)
1 28117U 03057A   25116.85600277 -.00000101  00000-0  00000+0 0  9996
2 28117   8.5462  35.6753 0002581 340.9795 222.1028  1.00272169 78244
CUBESAT XI-V (CO-58)
1 28895U 05043F   25116.84651942  .00004013  00000-0  66359-3 0  9998
2 28895  98.2426 260.6705 0015806  87.3018 272.9997 14.70835272 40512
CAPE-1
1 31130U 07012P   25116.82276360  .00003615  00000-0  67621-3 0  9997
2 31130  98.3943  77.0840 0084481 290.7385  68.4778 14.63248421957423
CUTE-1.7+APD II (CO-65)
1 32785U 08021C   25116.90027194  .00010842  00000-0  78962-3 0  9993
2 32785  97.7826  87.7655 0010284  14.9932 345.1597 15.03906168922586
SEEDS-II (CO-66)
1 32791U 08021J   25116.87308249  .00024658  00000-0  12309-2 0  9991
2 32791  97.7256  95.9843 0003006   2.8357 357.2893 15.17485246923860
YUBILEINY (RS-30)
1 32953U 08025A   25117.18471071  .00000015  00000-0  36553-4 0  9994
2 32953  82.5008 254.1631 0020336 139.1975 221.0632 12.43163128768141
PRISM (HITOMI)
1 33493U 09002B   25105.87867026  .11018114  29792-5  14588-2 0  9999
2 33493  98.1265 195.2801 0014877 274.5743  85.3852 16.35215587885656
KKS-1 (KISEKI)
1 33499U 09002H   25116.89407691  .00003399  00000-0  44075-3 0  9995
2 33499  98.1227  28.3676 0007698 188.0337 172.0753 14.81460911874527
SWISSCUBE
1 35932U 09051B   25117.21836168  .00002474  00000-0  51185-3 0  9998
2 35932  98.4348  12.6353 0008293  69.4133 290.7956 14.61210771828420
BEESAT
1 35933U 09051C   25116.97008033  .00002177  00000-0  45726-3 0  9997
2 35933  98.4282  12.8136 0006760  81.3336 278.8629 14.60643384828405
ITUPSAT-1
1 35935U 09051E   25116.67695620  .00001817  00000-0  39341-3 0  9996
2 35935  98.4373  12.0919 0008934  88.8573 271.3650 14.59446836827962
PROBA-2
1 36037U 09059B   25116.47982227  .00000543  00000-0  13775-3 0  9996
2 36037  98.2377 300.8841 0014311 124.8109 235.4437 14.54527292820948
XIWANG-1 (HOPE-1)
1 36122U 09072B   25116.84220821 -.00000022  00000-0  58101-4 0  9998
2 36122 100.3457  73.5487 0008134 103.8120 256.3899 13.16423337738228
EWS-G2 (GOES-15)
1 36411U 10008A   25116.90114122  .00000039  00000-0  00000-0 0  9991
2 36411   0.1956  85.9470 0001872 186.7447 328.3172  1.00274319 55469
TISAT-1
1 36799U 10035E   25116.23986256  .00020210  00000-0  10713-2 0  9998
2 36799  98.0614  27.5697 0001526 219.4004 140.7116 15.15420926804258
HORYU-2
1 38340U 12025D   25116.84977286  .00007657  00000-0  85422-3 0  9993
2 38340  98.1731 230.2461 0010077 102.8787 257.3554 14.87282477686769
AAUSAT-3
1 39087U 13009B   25117.04594524  .00001550  00000-0  51418-3 0  9992
2 39087  98.3677 305.6363 0012091  27.7251 332.4579 14.39148799637624
STRAND-1
1 39090U 13009E   25116.94189708  .00000742  00000-0  26560-3 0  9990
2 39090  98.3830 302.7839 0009460  41.7949 318.3958 14.36779046637302
CUBEBUG-1 (CAPITAN BETO)
1 39153U 13018D   25116.95474283  .00007788  00000-0  74668-3 0  9995
2 39153  98.1124 256.0245 0013723  84.3802 275.8981 14.93352142648948
PROBA-V
1 39159U 13021A   25116.94566658  .00000174  00000-0  94542-4 0  9998
2 39159  98.3205 112.1777 0002939 273.7432  86.3411 14.23473468621894
ZACUBE-1 (TSHEPISOSAT)
1 39417U 13066B   25116.85505000  .00006991  00000-0  61359-3 0  9990
2 39417  97.7770  74.1261 0043743 196.0870 163.8965 14.96181635618373
TRITON-1
1 39427U 13066M   25117.16991288  .00004814  00000-0  61336-3 0  9990
2 39427  97.8391  32.0509 0095806 146.4700 214.2626 14.78757079612730
DELFI-N3XT
1 39428U 13066N   25116.71827501  .00011278  00000-0  11608-2 0  9995
2 39428  97.8369  34.8836 0086960 143.8257 216.8885 14.87644490612555
GOMX-1
1 39430U 13066Q   25117.19044340  .00003458  00000-0  54351-3 0  9997
2 39430  97.6888 338.5100 0132204 331.9485  27.4639 14.67457926609043
HUMSAT-D
1 39433U 13066T   25116.92419734  .00051228  00000-0  16305-2 0  9997
2 39433  97.5027 112.0980 0008080 269.8898  90.1418 15.32378516622386
VELOX-PII
1 39438U 13066Y   25116.84731166  .00006256  00000-0  64241-3 0  9993
2 39438  97.8265  65.2473 0054881 280.3407  79.1627 14.89624873615784
CUBEBUG-2 (LO-74)
1 39440U 13066AA  25117.08715715  .00008971  00000-0  91322-3 0  9991
2 39440  97.8470  61.9669 0061551 325.1733  34.5462 14.89551133616160
FUNCUBE-1 (AO-73)
1 39444U 13066AE  25116.84444636  .00013629  00000-0  10358-2 0  9994
2 39444  97.7749  78.6228 0041297 172.6476 187.5362 15.01587325617023
UWE-3
1 39446U 13066AG  25116.83102074  .00007825  00000-0  74795-3 0  9999
2 39446  97.8210  68.0194 0051619 264.2786  95.2546 14.92516642615384
UNISAT-6
1 40012U 14033C   25116.95394988  .00005534  00000-0  64318-3 0  9990
2 40012  97.7366 274.3828 0047732 359.7494   0.3689 14.84916222584322
DUCHIFAT-1
1 40021U 14033M   25116.96571674  .00037847  00000-0  14456-2 0  9999
2 40021  98.0974 127.5762 0011594 107.4587 252.7918 15.26471490591668
FUNCUBE-3 (EO-79)
1 40025U 14033R   25116.94288015  .00015128  00000-0  94052-3 0  9994
2 40025  98.0811  97.1408 0009890 191.2946 168.8061 15.09710056590050
SMAP
1 40376U 15003A   25116.94265461  .00001161  00000-0  23385-3 0  9994
2 40376  98.1294 124.9056 0001225 101.0875 259.0465 14.63347063546748
LILACSAT-2
1 40908U 15049K   25117.15956711  .00018046  00000-0  48729-3 0  9993
2 40908  97.5089 136.4841 0007873 326.0448  34.0292 15.37790654531556
LAPAN-A2 (IO-86)
1 40931U 15052B   25038.81889873  .00001817  00000-0  15548-3 0  9993
2 40931   6.0001 108.1159 0012838 187.7041 172.2889 14.78568669506492
LQSAT
1 40958U 15057A   25117.20823275  .00001414  00000-0  21188-3 0  9992
2 40958  97.6573 126.8627 0017289 177.4626 182.6675 14.75992733513911
PRATHAM
1 41783U 16059A   25116.90783187  .00001777  00000-0  32766-3 0  9991
2 41783  97.8258 127.6131 0033262 103.4176 257.0740 14.66321220458495
ALSAT-1N
1 41789U 16059G   25117.21678286  .00002197  00000-0  38692-3 0  9996
2 41789  97.8071 134.3549 0027974  78.3801 282.0542 14.68256915458948
